{
  "type": "FeatureCollection",
  "features": [
    {
      "type": "Feature",
      "properties": {

        "nitrogen_kg_ha": 32,
        "intensity": 0.58
      },
      "geometry": { "type": "Point", "coordinates": [90.4125, 23.8103] }
    },
    {
      "type": "Feature",
      "properties": {

        "nitrogen_kg_ha": 28,
        "intensity": 0.50
      },
      "geometry": { "type": "Point", "coordinates": [90.4125, 23.8103] }
    },
    {
      "type": "Feature",
      "properties": {

        "nitrogen_kg_ha": 50,
        "intensity": 0.90
      },
      "geometry": { "type": "Point", "coordinates": [91.7832, 22.3569] }
    },
    {
      "type": "Feature",
      "properties": {

        "nitrogen_kg_ha": 46,
        "intensity": 0.82
      },
      "geometry": { "type": "Point", "coordinates": [91.7832, 22.3569] }
    },
    {
      "type": "Feature",
      "properties": {

        "nitrogen_kg_ha": 22,
        "intensity": 0.40
      },
      "geometry": { "type": "Point", "coordinates": [88.6241, 24.3636] }
    },
    {
      "type": "Feature",
      "properties": {

        "nitrogen_kg_ha": 18,
        "intensity": 0.33
      },
      "geometry": { "type": "Point", "coordinates": [88.6241, 24.3636] }
    },
    {
      "type": "Feature",
      "properties": {

        "nitrogen_kg_ha": 55,
        "intensity": 1.0
      },
      "geometry": { "type": "Point", "coordinates": [91.8687, 24.8949] }
    },
    {
      "type": "Feature",
      "properties": {

        "nitrogen_kg_ha": 52,
        "intensity": 0.95
      },
      "geometry": { "type": "Point", "coordinates": [91.8687, 24.8949] }
    },
    {
      "type": "Feature",
      "properties": {

        "nitrogen_kg_ha": 24,
        "intensity": 0.44
      },
      "geometry": { "type": "Point", "coordinates": [89.5403, 22.8456] }
    },
    {
      "type": "Feature",
      "properties": {

        "nitrogen_kg_ha": 20,
        "intensity": 0.36
      },
      "geometry": { "type": "Point", "coordinates": [89.5403, 22.8456] }
    },
    {
      "type": "Feature",
      "properties": {

        "nitrogen_kg_ha": 45,
        "intensity": 0.82
      },
      "geometry": { "type": "Point", "coordinates": [90.2070, 23.7261] }
    },
    {
      "type": "Feature",
      "properties": {

        "nitrogen_kg_ha": 41,
        "intensity": 0.74
      },
      "geometry": { "type": "Point", "coordinates": [90.2070, 23.7261] }
    },
    {
      "type": "Feature",
      "properties": {

        "nitrogen_kg_ha": 38,
        "intensity": 0.69
      },
      "geometry": { "type": "Point", "coordinates": [90.8398, 23.5058] }
    },
    {
      "type": "Feature",
      "properties": {

        "nitrogen_kg_ha": 34,
        "intensity": 0.62
      },
      "geometry": { "type": "Point", "coordinates": [90.8398, 23.5058] }
    },
    {
      "type": "Feature",
      "properties": {

        "nitrogen_kg_ha": 29,
        "intensity": 0.53
      },
      "geometry": { "type": "Point", "coordinates": [89.2468, 23.4684] }
    },
    {
      "type": "Feature",
      "properties": {

        "nitrogen_kg_ha": 25,
        "intensity": 0.45
      },
      "geometry": { "type": "Point", "coordinates": [89.2468, 23.4684] }
    },
    {
      "type": "Feature",
      "properties": {

        "nitrogen_kg_ha": 42,
        "intensity": 0.76
      },
      "geometry": { "type": "Point", "coordinates": [91.4153, 22.8628] }
    },
    {
      "type": "Feature",
      "properties": {

        "nitrogen_kg_ha": 38,
        "intensity": 0.69
      },
      "geometry": { "type": "Point", "coordinates": [91.4153, 22.8628] }
    },
    {
      "type": "Feature",
      "properties": {

        "nitrogen_kg_ha": 27,
        "intensity": 0.49
      },
      "geometry": { "type": "Point", "coordinates": [88.9034, 23.1587] }
    },
    {
      "type": "Feature",
      "properties": {

        "nitrogen_kg_ha": 23,
        "intensity": 0.42
      },
      "geometry": { "type": "Point", "coordinates": [88.9034, 23.1587] }
    },
    {
      "type": "Feature",
      "properties": {

        "nitrogen_kg_ha": 48,
        "intensity": 0.87
      },
      "geometry": { "type": "Point", "coordinates": [91.2306, 24.1768] }
    },
    {
      "type": "Feature",
      "properties": {

        "nitrogen_kg_ha": 44,
        "intensity": 0.80
      },
      "geometry": { "type": "Point", "coordinates": [91.2306, 24.1768] }
    },
    {
      "type": "Feature",
      "properties": {

        "nitrogen_kg_ha": 35,
        "intensity": 0.64
      },
      "geometry": { "type": "Point", "coordinates": [89.7842, 24.0204] }
    },
    {
      "type": "Feature",
      "properties": {

        "nitrogen_kg_ha": 31,
        "intensity": 0.56
      },
      "geometry": { "type": "Point", "coordinates": [89.7842, 24.0204] }
    },
    {
      "type": "Feature",
      "properties": {

        "nitrogen_kg_ha": 26,
        "intensity": 0.47
      },
      "geometry": { "type": "Point", "coordinates": [88.2794, 24.7471] }
    },
    {
      "type": "Feature",
      "properties": {

        "nitrogen_kg_ha": 22,
        "intensity": 0.40
      },
      "geometry": { "type": "Point", "coordinates": [88.2794, 24.7471] }
    },
    {
      "type": "Feature",
      "properties": {

        "nitrogen_kg_ha": 52,
        "intensity": 0.95
      },
      "geometry": { "type": "Point", "coordinates": [91.5840, 24.6204] }
    },
    {
      "type": "Feature",
      "properties": {

        "nitrogen_kg_ha": 48,
        "intensity": 0.87
      },
      "geometry": { "type": "Point", "coordinates": [91.5840, 24.6204] }
    },
    {
      "type": "Feature",
      "properties": {

        "nitrogen_kg_ha": 19,
        "intensity": 0.35
      },
      "geometry": { "type": "Point", "coordinates": [89.1203, 22.3155] }
    },
    {
      "type": "Feature",
      "properties": {

        "nitrogen_kg_ha": 15,
        "intensity": 0.27
      },
      "geometry": { "type": "Point", "coordinates": [89.1203, 22.3155] }
    },
    {
      "type": "Feature",
      "properties": {

        "nitrogen_kg_ha": 41,
        "intensity": 0.75
      },
      "geometry": { "type": "Point", "coordinates": [92.1584, 23.2420] }
    },
    {
      "type": "Feature",
      "properties": {

        "nitrogen_kg_ha": 37,
        "intensity": 0.67
      },
      "geometry": { "type": "Point", "coordinates": [92.1584, 23.2420] }
    },
    {
      "type": "Feature",
      "properties": {

        "nitrogen_kg_ha": 33,
        "intensity": 0.60
      },
      "geometry": { "type": "Point", "coordinates": [90.6321, 24.2574] }
    },
    {
      "type": "Feature",
      "properties": {

        "nitrogen_kg_ha": 29,
        "intensity": 0.53
      },
      "geometry": { "type": "Point", "coordinates": [90.6321, 24.2574] }
    },
    {
      "type": "Feature",
      "properties": {

        "nitrogen_kg_ha": 21,
        "intensity": 0.38
      },
      "geometry": { "type": "Point", "coordinates": [88.8974, 25.1085] }
    },
    {
      "type": "Feature",
      "properties": {

        "nitrogen_kg_ha": 17,
        "intensity": 0.31
      },
      "geometry": { "type": "Point", "coordinates": [88.8974, 25.1085] }
    },
    {
      "type": "Feature",
      "properties": {

        "nitrogen_kg_ha": 46,
        "intensity": 0.84
      },
      "geometry": { "type": "Point", "coordinates": [91.9726, 22.8459] }
    },
    {
      "type": "Feature",
      "properties": {

        "nitrogen_kg_ha": 42,
        "intensity": 0.76
      },
      "geometry": { "type": "Point", "coordinates": [91.9726, 22.8459] }
    },
    {
      "type": "Feature",
      "properties": {

        "nitrogen_kg_ha": 30,
        "intensity": 0.55
      },
      "geometry": { "type": "Point", "coordinates": [89.6394, 23.7840] }
    },
    {
      "type": "Feature",
      "properties": {

        "nitrogen_kg_ha": 26,
        "intensity": 0.47
      },
      "geometry": { "type": "Point", "coordinates": [89.6394, 23.7840] }
    },
    {
      "type": "Feature",
      "properties": {

        "nitrogen_kg_ha": 39,
        "intensity": 0.71
      },
      "geometry": { "type": "Point", "coordinates": [90.9847, 22.7026] }
    },
    {
      "type": "Feature",
      "properties": {

        "nitrogen_kg_ha": 35,
        "intensity": 0.64
      },
      "geometry": { "type": "Point", "coordinates": [90.9847, 22.7026] }
    },
    {
      "type": "Feature",
      "properties": {

        "nitrogen_kg_ha": 28,
        "intensity": 0.51
      },
      "geometry": { "type": "Point", "coordinates": [88.4567, 23.9876] }
    },
    {
      "type": "Feature",
      "properties": {

        "nitrogen_kg_ha": 24,
        "intensity": 0.44
      },
      "geometry": { "type": "Point", "coordinates": [88.4567, 23.9876] }
    },
    {
      "type": "Feature",
      "properties": {

        "nitrogen_kg_ha": 53,
        "intensity": 0.96
      },
      "geometry": { "type": "Point", "coordinates": [91.7234, 25.1234] }
    },
    {
      "type": "Feature",
      "properties": {

        "nitrogen_kg_ha": 49,
        "intensity": 0.89
      },
      "geometry": { "type": "Point", "coordinates": [91.7234, 25.1234] }
    },
    {
      "type": "Feature",
      "properties": {

        "nitrogen_kg_ha": 36,
        "intensity": 0.65
      },
      "geometry": { "type": "Point", "coordinates": [89.8956, 22.9876] }
    },
    {
      "type": "Feature",
      "properties": {

        "nitrogen_kg_ha": 32,
        "intensity": 0.58
      },
      "geometry": { "type": "Point", "coordinates": [89.8956, 22.9876] }
    },
    {
      "type": "Feature",
      "properties": {

        "nitrogen_kg_ha": 23,
        "intensity": 0.42
      },
      "geometry": { "type": "Point", "coordinates": [88.1203, 22.7845] }
    },
    {
      "type": "Feature",
      "properties": {

        "nitrogen_kg_ha": 19,
        "intensity": 0.35
      },
      "geometry": { "type": "Point", "coordinates": [88.1203, 22.7845] }
    },
    {
      "type": "Feature",
      "properties": {

        "nitrogen_kg_ha": 44,
        "intensity": 0.80
      },
      "geometry": { "type": "Point", "coordinates": [92.0384, 24.4567] }
    },
    {
      "type": "Feature",
      "properties": {

        "nitrogen_kg_ha": 40,
        "intensity": 0.73
      },
      "geometry": { "type": "Point", "coordinates": [92.0384, 24.4567] }
    },
    {
      "type": "Feature",
      "properties": {

        "nitrogen_kg_ha": 31,
        "intensity": 0.56
      },
      "geometry": { "type": "Point", "coordinates": [89.3456, 24.8901] }
    },
    {
      "type": "Feature",
      "properties": {

        "nitrogen_kg_ha": 27,
        "intensity": 0.49
      },
      "geometry": { "type": "Point", "coordinates": [89.3456, 24.8901] }
    },
    {
      "type": "Feature",
      "properties": {

        "nitrogen_kg_ha": 47,
        "intensity": 0.85
      },
      "geometry": { "type": "Point", "coordinates": [91.3245, 23.9876] }
    },
    {
      "type": "Feature",
      "properties": {

        "nitrogen_kg_ha": 43,
        "intensity": 0.78
      },
      "geometry": { "type": "Point", "coordinates": [91.3245, 23.9876] }
    },
    {
      "type": "Feature",
      "properties": {

        "nitrogen_kg_ha": 34,
        "intensity": 0.62
      },
      "geometry": { "type": "Point", "coordinates": [89.7654, 23.2134] }
    },
    {
      "type": "Feature",
      "properties": {

        "nitrogen_kg_ha": 30,
        "intensity": 0.55
      },
      "geometry": { "type": "Point", "coordinates": [89.7654, 23.2134] }
    },
    {
      "type": "Feature",
      "properties": {

        "nitrogen_kg_ha": 25,
        "intensity": 0.45
      },
      "geometry": { "type": "Point", "coordinates": [88.5432, 24.5678] }
    },
    {
      "type": "Feature",
      "properties": {

        "nitrogen_kg_ha": 21,
        "intensity": 0.38
      },
      "geometry": { "type": "Point", "coordinates": [88.5432, 24.5678] }
    },
    {
      "type": "Feature",
      "properties": {

        "nitrogen_kg_ha": 51,
        "intensity": 0.93
      },
      "geometry": { "type": "Point", "coordinates": [91.8765, 23.6789] }
    },
    {
      "type": "Feature",
      "properties": {

        "nitrogen_kg_ha": 47,
        "intensity": 0.85
      },
      "geometry": { "type": "Point", "coordinates": [91.8765, 23.6789] }
    },
    {
      "type": "Feature",
      "properties": {

        "nitrogen_kg_ha": 37,
        "intensity": 0.67
      },
      "geometry": { "type": "Point", "coordinates": [90.1234, 22.8765] }
    },
    {
      "type": "Feature",
      "properties": {

        "nitrogen_kg_ha": 33,
        "intensity": 0.60
      },
      "geometry": { "type": "Point", "coordinates": [90.1234, 22.8765] }
    },
    {
      "type": "Feature",
      "properties": {

        "nitrogen_kg_ha": 20,
        "intensity": 0.36
      },
      "geometry": { "type": "Point", "coordinates": [88.9876, 22.4321] }
    },
    {
      "type": "Feature",
      "properties": {

        "nitrogen_kg_ha": 16,
        "intensity": 0.29
      },
      "geometry": { "type": "Point", "coordinates": [88.9876, 22.4321] }
    },
    {
      "type": "Feature",
      "properties": {

        "nitrogen_kg_ha": 43,
        "intensity": 0.78
      },
      "geometry": { "type": "Point", "coordinates": [91.5678, 25.0123] }
    },
    {
      "type": "Feature",
      "properties": {

        "nitrogen_kg_ha": 39,
        "intensity": 0.71
      },
      "geometry": { "type": "Point", "coordinates": [91.5678, 25.0123] }
    },
    {
      "type": "Feature",
      "properties": {

        "nitrogen_kg_ha": 29,
        "intensity": 0.53
      },
      "geometry": { "type": "Point", "coordinates": [89.4567, 25.2345] }
    },
    {
      "type": "Feature",
      "properties": {

        "nitrogen_kg_ha": 25,
        "intensity": 0.45
      },
      "geometry": { "type": "Point", "coordinates": [89.4567, 25.2345] }
    },
    {
      "type": "Feature",
      "properties": {

        "nitrogen_kg_ha": 40,
        "intensity": 0.73
      },
      "geometry": { "type": "Point", "coordinates": [90.7890, 23.1234] }
    },
    {
      "type": "Feature",
      "properties": {

        "nitrogen_kg_ha": 36,
        "intensity": 0.65
      },
      "geometry": { "type": "Point", "coordinates": [90.7890, 23.1234] }
    },
    {
      "type": "Feature",
      "properties": {

        "nitrogen_kg_ha": 18,
        "intensity": 0.33
      },
      "geometry": { "type": "Point", "coordinates": [88.2109, 23.5432] }
    },
    {
      "type": "Feature",
      "properties": {

        "nitrogen_kg_ha": 14,
        "intensity": 0.25
      },
      "geometry": { "type": "Point", "coordinates": [88.2109, 23.5432] }
    },
    {
      "type": "Feature",
      "properties": {

        "nitrogen_kg_ha": 54,
        "intensity": 0.98
      },
      "geometry": { "type": "Point", "coordinates": [92.1098, 24.8765] }
    },
    {
      "type": "Feature",
      "properties": {

        "nitrogen_kg_ha": 50,
        "intensity": 0.91
      },
      "geometry": { "type": "Point", "coordinates": [92.1098, 24.8765] }
    },
    {
      "type": "Feature",
      "properties": {

        "nitrogen_kg_ha": 32,
        "intensity": 0.58
      },
      "geometry": { "type": "Point", "coordinates": [89.6543, 24.3210] }
    },
    {
      "type": "Feature",
      "properties": {

        "nitrogen_kg_ha": 28,
        "intensity": 0.51
      },
      "geometry": { "type": "Point", "coordinates": [89.6543, 24.3210] }
    },
    {
      "type": "Feature",
      "properties": {

        "nitrogen_kg_ha": 45,
        "intensity": 0.82
      },
      "geometry": { "type": "Point", "coordinates": [91.0987, 22.6543] }
    },
    {
      "type": "Feature",
      "properties": {

        "nitrogen_kg_ha": 41,
        "intensity": 0.75
      },
      "geometry": { "type": "Point", "coordinates": [91.0987, 22.6543] }
    },
    {
      "type": "Feature",
      "properties": {

        "nitrogen_kg_ha": 26,
        "intensity": 0.47
      },
      "geometry": { "type": "Point", "coordinates": [88.7654, 25.4321] }
    },
    {
      "type": "Feature",
      "properties": {

        "nitrogen_kg_ha": 22,
        "intensity": 0.40
      },
      "geometry": { "type": "Point", "coordinates": [88.7654, 25.4321] }
    },
    {
      "type": "Feature",
      "properties": {

        "nitrogen_kg_ha": 49,
        "intensity": 0.89
      },
      "geometry": { "type": "Point", "coordinates": [91.6789, 23.4567] }
    },
    {
      "type": "Feature",
      "properties": {

        "nitrogen_kg_ha": 45,
        "intensity": 0.82
      },
      "geometry": { "type": "Point", "coordinates": [91.6789, 23.4567] }
    },
    {
      "type": "Feature",
      "properties": {

        "nitrogen_kg_ha": 35,
        "intensity": 0.64
      },
      "geometry": { "type": "Point", "coordinates": [90.3456, 25.1098] }
    },
    {
      "type": "Feature",
      "properties": {

        "nitrogen_kg_ha": 31,
        "intensity": 0.56
      },
      "geometry": { "type": "Point", "coordinates": [90.3456, 25.1098] }
    },
    {
      "type": "Feature",
      "properties": {

        "nitrogen_kg_ha": 24,
        "intensity": 0.44
      },
      "geometry": { "type": "Point", "coordinates": [88.4321, 22.9876] }
    },
    {
      "type": "Feature",
      "properties": {

        "nitrogen_kg_ha": 20,
        "intensity": 0.36
      },
      "geometry": { "type": "Point", "coordinates": [88.4321, 22.9876] }
    },
    {
      "type": "Feature",
      "properties": {

        "nitrogen_kg_ha": 42,
        "intensity": 0.76
      },
      "geometry": { "type": "Point", "coordinates": [91.2345, 24.7890] }
    },
    {
      "type": "Feature",
      "properties": {

        "nitrogen_kg_ha": 38,
        "intensity": 0.69
      },
      "geometry": { "type": "Point", "coordinates": [91.2345, 24.7890] }
    },
    {
      "type": "Feature",
      "properties": {

        "nitrogen_kg_ha": 27,
        "intensity": 0.49
      },
      "geometry": { "type": "Point", "coordinates": [89.1098, 23.6789] }
    },
    {
      "type": "Feature",
      "properties": {

        "nitrogen_kg_ha": 23,
        "intensity": 0.42
      },
      "geometry": { "type": "Point", "coordinates": [89.1098, 23.6789] }
    },
    {
      "type": "Feature",
      "properties": {

        "nitrogen_kg_ha": 38,
        "intensity": 0.69
      },
      "geometry": { "type": "Point", "coordinates": [90.5432, 22.5678] }
    },
    {
      "type": "Feature",
      "properties": {

        "nitrogen_kg_ha": 34,
        "intensity": 0.62
      },
      "geometry": { "type": "Point", "coordinates": [90.5432, 22.5678] }
    },
    {
      "type": "Feature",
      "properties": {

        "nitrogen_kg_ha": 17,
        "intensity": 0.31
      },
      "geometry": { "type": "Point", "coordinates": [88.0987, 24.2109] }
    },
    {
      "type": "Feature",
      "properties": {

        "nitrogen_kg_ha": 13,
        "intensity": 0.24
      },
      "geometry": { "type": "Point", "coordinates": [88.0987, 24.2109] }
    },
    {
      "type": "Feature",
      "properties": {

        "nitrogen_kg_ha": 56,
        "intensity": 1.0
      },
      "geometry": { "type": "Point", "coordinates": [92.3456, 23.8901] }
    },
    {
      "type": "Feature",
      "properties": {

        "nitrogen_kg_ha": 52,
        "intensity": 0.93
      },
      "geometry": { "type": "Point", "coordinates": [92.3456, 23.8901] }
    },
    {
      "type": "Feature",
      "properties": {

        "nitrogen_kg_ha": 33,
        "intensity": 0.60
      },
      "geometry": { "type": "Point", "coordinates": [89.8765, 25.0432] }
    },
    {
      "type": "Feature",
      "properties": {

        "nitrogen_kg_ha": 29,
        "intensity": 0.53
      },
      "geometry": { "type": "Point", "coordinates": [89.8765, 25.0432] }
    },
    {
      "type": "Feature",
      "properties": {

        "nitrogen_kg_ha": 41,
        "intensity": 0.75
      },
      "geometry": { "type": "Point", "coordinates": [90.9012, 24.1234] }
    },
    {
      "type": "Feature",
      "properties": {

        "nitrogen_kg_ha": 37,
        "intensity": 0.67
      },
      "geometry": { "type": "Point", "coordinates": [90.9012, 24.1234] }
    },
    {
      "type": "Feature",
      "properties": {

        "nitrogen_kg_ha": 22,
        "intensity": 0.40
      },
      "geometry": { "type": "Point", "coordinates": [88.6789, 23.0987] }
    },
    {
      "type": "Feature",
      "properties": {

        "nitrogen_kg_ha": 18,
        "intensity": 0.33
      },
      "geometry": { "type": "Point", "coordinates": [88.6789, 23.0987] }
    }
  ]
}
