{
  "type": "FeatureCollection",
  "features": [
    {
      "type": "Feature",
      "properties": {
        "station_id": "WS001",
        "station_name": "Dhaka Meteorological Station",
        "temperature": 32.5,
        "rainfall": 85.2,
        "humidity": 78,
        "wind_speed": 12.3,
        "pressure": 1013.2,
        "last_updated": "2025-09-19T10:30:00Z"
      },
      "geometry": {
        "type": "Point",
        "coordinates": [90.4125, 23.8103]
      }
    },
    {
      "type": "Feature",
      "properties": {
        "station_id": "WS002",
        "station_name": "Chittagong Port Weather Station",
        "temperature": 29.8,
        "rainfall": 142.7,
        "humidity": 85,
        "wind_speed": 18.7,
        "pressure": 1011.8,
        "last_updated": "2025-09-19T10:30:00Z"
      },
      "geometry": {
        "type": "Point",
        "coordinates": [91.8325, 22.3569]
      }
    },
    {
      "type": "Feature",
      "properties": {
        "station_id": "WS003",
        "station_name": "Sylhet MAG Osmani Airport",
        "temperature": 26.3,
        "rainfall": 195.4,
        "humidity": 92,
        "wind_speed": 8.2,
        "pressure": 1015.1,
        "last_updated": "2025-09-19T10:30:00Z"
      },
      "geometry": {
        "type": "Point",
        "coordinates": [91.8868, 24.9633]
      }
    },
    {
      "type": "Feature",
      "properties": {
        "station_id": "WS004",
        "station_name": "Rajshahi University Station",
        "temperature": 36.7,
        "rainfall": 12.3,
        "humidity": 52,
        "wind_speed": 15.4,
        "pressure": 1009.7,
        "last_updated": "2025-09-19T10:30:00Z"
      },
      "geometry": {
        "type": "Point",
        "coordinates": [88.6294, 24.3745]
      }
    },
    {
      "type": "Feature",
      "properties": {
        "station_id": "WS005",
        "station_name": "Khulna Shipyard Weather Station",
        "temperature": 31.2,
        "rainfall": 67.8,
        "humidity": 88,
        "wind_speed": 22.1,
        "pressure": 1012.4,
        "last_updated": "2025-09-19T10:30:00Z"
      },
      "geometry": {
        "type": "Point",
        "coordinates": [89.5403, 22.8456]
      }
    },
    {
      "type": "Feature",
      "properties": {
        "station_id": "WS006",
        "station_name": "Barisal Airport Weather Station",
        "temperature": 28.9,
        "rainfall": 156.9,
        "humidity": 91,
        "wind_speed": 19.6,
        "pressure": 1014.3,
        "last_updated": "2025-09-19T10:30:00Z"
      },
      "geometry": {
        "type": "Point",
        "coordinates": [90.4012, 22.8010]
      }
    },
    {
      "type": "Feature",
      "properties": {
        "station_id": "WS007",
        "station_name": "Rangpur Agricultural Station",
        "temperature": 24.1,
        "rainfall": 38.5,
        "humidity": 68,
        "wind_speed": 11.8,
        "pressure": 1016.8,
        "last_updated": "2025-09-19T10:30:00Z"
      },
      "geometry": {
        "type": "Point",
        "coordinates": [89.2444, 25.7439]
      }
    },
    {
      "type": "Feature",
      "properties": {
        "station_id": "WS008",
        "station_name": "Comilla Cantonment Weather Station",
        "temperature": 33.8,
        "rainfall": 74.2,
        "humidity": 72,
        "wind_speed": 13.7,
        "pressure": 1010.9,
        "last_updated": "2025-09-19T10:30:00Z"
      },
      "geometry": {
        "type": "Point",
        "coordinates": [91.1872, 23.4607]
      }
    },
    {
      "type": "Feature",
      "properties": {
        "station_id": "WS009",
        "station_name": "Cox's Bazar Beach Weather Station",
        "temperature": 30.4,
        "rainfall": 198.1,
        "humidity": 94,
        "wind_speed": 25.3,
        "pressure": 1008.5,
        "last_updated": "2025-09-19T10:30:00Z"
      },
      "geometry": {
        "type": "Point",
        "coordinates": [91.9794, 21.4272]
      }
    },
    {
      "type": "Feature",
      "properties": {
        "station_id": "WS010",
        "station_name": "Mymensingh Agricultural University",
        "temperature": 27.6,
        "rainfall": 121.6,
        "humidity": 81,
        "wind_speed": 9.4,
        "pressure": 1013.7,
        "last_updated": "2025-09-19T10:30:00Z"
      },
      "geometry": {
        "type": "Point",
        "coordinates": [90.4203, 24.7471]
      }
    },
    {
      "type": "Feature",
      "properties": {
        "station_id": "WS011",
        "station_name": "Jessore Cantonment Station",
        "temperature": 35.2,
        "rainfall": 22.8,
        "humidity": 58,
        "wind_speed": 16.9,
        "pressure": 1011.3,
        "last_updated": "2025-09-19T10:30:00Z"
      },
      "geometry": {
        "type": "Point",
        "coordinates": [89.2081, 23.1667]
      }
    },
    {
      "type": "Feature",
      "properties": {
        "station_id": "WS012",
        "station_name": "Bogura Agricultural Research Station",
        "temperature": 38.9,
        "rainfall": 5.7,
        "humidity": 45,
        "wind_speed": 20.2,
        "pressure": 1007.1,
        "last_updated": "2025-09-19T10:30:00Z"
      },
      "geometry": {
        "type": "Point",
        "coordinates": [89.3720, 24.8465]
      }
    },
    {
      "type": "Feature",
      "properties": {
        "station_id": "WS013",
        "station_name": "Patuakhali Coastal Weather Station",
        "temperature": 29.1,
        "rainfall": 187.3,
        "humidity": 89,
        "wind_speed": 28.4,
        "pressure": 1009.8,
        "last_updated": "2025-09-19T10:30:00Z"
      },
      "geometry": {
        "type": "Point",
        "coordinates": [90.3298, 22.3596]
      }
    },
    {
      "type": "Feature",
      "properties": {
        "station_id": "WS014",
        "station_name": "Dinajpur Northern Weather Station",
        "temperature": 21.8,
        "rainfall": 45.1,
        "humidity": 61,
        "wind_speed": 7.8,
        "pressure": 1018.2,
        "last_updated": "2025-09-19T10:30:00Z"
      },
      "geometry": {
        "type": "Point",
        "coordinates": [88.6377, 25.6217]
      }
    },
    {
      "type": "Feature",
      "properties": {
        "station_id": "WS015",
        "station_name": "Tangail District Weather Station",
        "temperature": 34.6,
        "rainfall": 98.4,
        "humidity": 76,
        "wind_speed": 14.1,
        "pressure": 1012.6,
        "last_updated": "2025-09-19T10:30:00Z"
      },
      "geometry": {
        "type": "Point",
        "coordinates": [89.9167, 24.2513]
      }
    }
  ]
}
